*******************************************************************************
Ephemeris / WWW_USER Mon Mar 26 21:53:47 2018 Pasadena, USA      / Horizons    
*******************************************************************************
Target body name: Saturn (699)                    {source: sat389}
Center body name: Solar System Barycenter (0)     {source: DE431mx}
Center-site name: BODY CENTER
*******************************************************************************
Start time      : A.D. 2000-Jan-01 00:00:00.0000 TDB
Stop  time      : A.D. 2005-Jan-01 00:00:00.0000 TDB
Step-size       : 7200 minutes
*******************************************************************************
Center geodetic : 0.00000000,0.00000000,0.0000000 {E-lon(deg),Lat(deg),Alt(km)}
Center cylindric: 0.00000000,0.00000000,0.0000000 {E-lon(deg),Dxy(km),Dz(km)}
Center radii    : (undefined)                                                  
Output units    : AU-D                                                         
Output type     : GEOMETRIC cartesian states
Output format   : 2 (position and velocity)
Reference frame : ICRF/J2000.0                                                 
Coordinate systm: Ecliptic and Mean Equinox of Reference Epoch                 
*******************************************************************************
JDTDB
   X     Y     Z
   VX    VY    VZ
*******************************************************************************
$$SOE
2452384.500000000 = A.D. 2002-Apr-20 00:00:00.0000 TDB 
   2.103075215067299E+00  8.795290477401592E+00 -2.367234741230629E-01
  -5.721459414439678E-03  1.284191433533562E-03  2.056675839317341E-04
2452389.500000000 = A.D. 2002-Apr-25 00:00:00.0000 TDB 
   2.074459505280827E+00  8.801669596067367E+00 -2.356952649898922E-01
  -5.725213307392556E-03  1.267634476046057E-03  2.055610914812234E-04
2452394.500000000 = A.D. 2002-Apr-30 00:00:00.0000 TDB 
   2.045819894248837E+00  8.807964675728837E+00 -2.346664486248958E-01
  -5.730607692873108E-03  1.250057115612938E-03  2.061379649660609E-04
2452399.500000000 = A.D. 2002-May-05 00:00:00.0000 TDB 
   2.017156750988304E+00  8.814167815391061E+00 -2.336330056199408E-01
  -5.734209850769166E-03  1.231343841801332E-03  2.071202310079439E-04
2452404.500000000 = A.D. 2002-May-10 00:00:00.0000 TDB 
   1.988478661962964E+00  8.820281773409512E+00 -2.325972246917294E-01
  -5.737401298630611E-03  1.214500156540003E-03  2.070941101697542E-04
2452409.500000000 = A.D. 2002-May-15 00:00:00.0000 TDB 
   1.959779279504481E+00  8.826312114064157E+00 -2.315613718470739E-01
  -5.742536686574509E-03  1.197271754375594E-03  2.074530026637601E-04
2452414.500000000 = A.D. 2002-May-20 00:00:00.0000 TDB 
   1.931055838281504E+00  8.832251566945414E+00 -2.305214442307548E-01
  -5.746405921824516E-03  1.178468176404446E-03  2.084958822945457E-04
2452419.500000000 = A.D. 2002-May-25 00:00:00.0000 TDB 
   1.902317597788227E+00  8.838099928447894E+00 -2.294782683289682E-01
  -5.749087733098648E-03  1.161239857316306E-03  2.086059338552995E-04
2452424.500000000 = A.D. 2002-May-30 00:00:00.0000 TDB 
   1.873560867423221E+00  8.843864515299890E+00 -2.284352744836026E-01
  -5.753816852880254E-03  1.144299374500316E-03  2.087645468738432E-04
2452429.500000000 = A.D. 2002-Jun-04 00:00:00.0000 TDB 
   1.844780155684294E+00  8.849539623879840E+00 -2.273889982574102E-01
  -5.758004168741978E-03  1.125556225140633E-03  2.097963270843470E-04
2452434.500000000 = A.D. 2002-Jun-09 00:00:00.0000 TDB 
   1.815984140066346E+00  8.855122142717255E+00 -2.263387068231568E-01
  -5.760417030446761E-03  1.107875222950564E-03  2.101024297822899E-04
2452439.500000000 = A.D. 2002-Jun-14 00:00:00.0000 TDB 
   1.787172394660657E+00  8.860620085071115E+00 -2.252885085213973E-01
  -5.764651859505933E-03  1.091149384195208E-03  2.100912483464094E-04
2452444.500000000 = A.D. 2002-Jun-19 00:00:00.0000 TDB 
   1.758337422112866E+00  8.866030051573821E+00 -2.242359273197786E-01
  -5.769046572718994E-03  1.072601282884650E-03  2.110333155784473E-04
2452449.500000000 = A.D. 2002-Jun-24 00:00:00.0000 TDB 
   1.729486175505855E+00  8.871346515488813E+00 -2.231788117055347E-01
  -5.771315224566390E-03  1.054417188598668E-03  2.115757842615302E-04
2452454.500000000 = A.D. 2002-Jun-29 00:00:00.0000 TDB 
   1.700621637889516E+00  8.876577048360589E+00 -2.221213745739070E-01
  -5.774931303458843E-03  1.037736764152158E-03  2.114719347690222E-04
2452459.500000000 = A.D. 2002-Jul-04 00:00:00.0000 TDB 
   1.671735325483209E+00  8.881721035806400E+00 -2.210624766891316E-01
  -5.779418050007365E-03  1.019475268984206E-03  2.122672880745808E-04
2452464.500000000 = A.D. 2002-Jul-09 00:00:00.0000 TDB 
   1.642831612180929E+00  8.886771305859865E+00 -2.199988617375690E-01
  -5.781754760886448E-03  1.000898374753201E-03  2.130110394258229E-04
2452469.500000000 = A.D. 2002-Jul-14 00:00:00.0000 TDB 
   1.613916487103427E+00  8.891733864918388E+00 -2.189342297305929E-01
  -5.784727438750777E-03  9.841927746097286E-04  2.128490691115129E-04
2452474.500000000 = A.D. 2002-Jul-19 00:00:00.0000 TDB 
   1.584981613456792E+00  8.896611002960158E+00 -2.178689535487351E-01
  -5.789149474436680E-03  9.663068358633982E-04  2.134369027173330E-04
2452479.500000000 = A.D. 2002-Jul-24 00:00:00.0000 TDB 
   1.556028280428237E+00  8.901394870237045E+00 -2.167991233848191E-01
  -5.791701651505260E-03  9.474323220043090E-04  2.143480220927473E-04
2452484.500000000 = A.D. 2002-Jul-29 00:00:00.0000 TDB 
   1.527064665078353E+00  8.906089044125052E+00 -2.157274016295970E-01
  -5.794091252557587E-03  9.304898630670034E-04  2.142437678270773E-04
2452489.500000000 = A.D. 2002-Aug-03 00:00:00.0000 TDB 
   1.498083802202844E+00  8.910698446018522E+00 -2.146556534241827E-01
  -5.798345293555147E-03  9.129367434999474E-04  2.146363356659362E-04
2452494.500000000 = A.D. 2002-Aug-08 00:00:00.0000 TDB 
   1.469083822770821E+00  8.915215550874990E+00 -2.135798248924780E-01
  -5.801212565948468E-03  8.939189493998867E-04  2.156451175290349E-04
2452499.500000000 = A.D. 2002-Aug-13 00:00:00.0000 TDB 
   1.440073940930078E+00  8.919641010282946E+00 -2.125011705334110E-01
  -5.803062914363932E-03  8.766271406389056E-04  2.156610206919606E-04
2452504.500000000 = A.D. 2002-Aug-18 00:00:00.0000 TDB 
   1.411049596740241E+00  8.923981748336312E+00 -2.114228243395690E-01
  -5.806918941369724E-03  8.593797489895551E-04  2.158500107088697E-04
2452509.500000000 = A.D. 2002-Aug-23 00:00:00.0000 TDB 
   1.382006047374603E+00  8.928231561246049E+00 -2.103411294255160E-01
  -5.810052304204829E-03  8.403790520188834E-04  2.168697229198666E-04
2452514.500000000 = A.D. 2002-Aug-28 00:00:00.0000 TDB 
   1.352952280847779E+00  8.932388147070160E+00 -2.092557925828324E-01
  -5.811525201524610E-03  8.226413855119752E-04  2.170725830084709E-04
2452519.500000000 = A.D. 2002-Sep-02 00:00:00.0000 TDB 
   1.323886881232677E+00  8.936459466093520E+00 -2.081707894029085E-01
  -5.814922974333090E-03  8.056485419116195E-04  2.170796169314027E-04
2452524.500000000 = A.D. 2002-Sep-07 00:00:00.0000 TDB 
   1.294802864005462E+00  8.940441419571892E+00 -2.070833249658423E-01
  -5.818322354004134E-03  7.868617450925970E-04  2.180101720375538E-04
2452529.500000000 = A.D. 2002-Sep-12 00:00:00.0000 TDB 
   1.265707775279831E+00  8.944329104156809E+00 -2.059916190247960E-01
  -5.819617393007714E-03  7.686719362085455E-04  2.184247494035587E-04
2452534.500000000 = A.D. 2002-Sep-17 00:00:00.0000 TDB 
   1.236603605166587E+00  8.948130373338000E+00 -2.048999243619609E-01
  -5.822435689045223E-03  7.517948014693179E-04  2.183117535321624E-04
2452539.500000000 = A.D. 2002-Sep-22 00:00:00.0000 TDB 
   1.207482061931663E+00  8.951843802211064E+00 -2.038066936954205E-01
  -5.825962600170972E-03  7.332651235440544E-04  2.191195423377921E-04
2452544.500000000 = A.D. 2002-Sep-27 00:00:00.0000 TDB 
   1.178348327214422E+00  8.955462597104930E+00 -2.027089368688448E-01
  -5.827274184247642E-03  7.146062961655458E-04  2.197753691126252E-04
2452549.500000000 = A.D. 2002-Oct-02 00:00:00.0000 TDB 
   1.149207589543857E+00  8.958993350020068E+00 -2.016105696533333E-01
  -5.829474165575857E-03  6.977117794836394E-04  2.196078541723533E-04
2452554.500000000 = A.D. 2002-Oct-07 00:00:00.0000 TDB 
   1.120051377901347E+00  8.962437527493680E+00 -2.005115179036204E-01
  -5.832971790236306E-03  6.795579628863652E-04  2.202161827977625E-04
2452559.500000000 = A.D. 2002-Oct-12 00:00:00.0000 TDB 
   1.090881884454329E+00  8.965787369967520E+00 -1.994079988248929E-01
  -5.834423946809205E-03  6.605914222953669E-04  2.210420462056615E-04
2452564.500000000 = A.D. 2002-Oct-17 00:00:00.0000 TDB 
   1.061706760046381E+00  8.969047267664838E+00 -1.983030350048805E-01
  -5.835981260445866E-03  6.435487479329037E-04  2.208851126995826E-04
2452569.500000000 = A.D. 2002-Oct-22 00:00:00.0000 TDB 
   1.032518551844420E+00  8.972221447157676E+00 -1.971980760300903E-01
  -5.839314255771286E-03  6.257612483888856E-04  2.212860413514555E-04
2452574.500000000 = A.D. 2002-Oct-27 00:00:00.0000 TDB 
   1.003316272661216E+00  8.975302199262538E+00 -1.960890514711825E-01
  -5.841082497345557E-03  6.066062702720779E-04  2.222382553697616E-04
2452579.500000000 = A.D. 2002-Nov-01 00:00:00.0000 TDB 
   9.741089759899695E-01  8.978291080312085E+00 -1.949776592459381E-01
  -5.842132772085043E-03  5.892688161783451E-04  2.221814061624094E-04
2452584.500000000 = A.D. 2002-Nov-06 00:00:00.0000 TDB 
   9.448913331198199E-01  8.981194516815419E+00 -1.938666915514914E-01
  -5.845154961139300E-03  5.718256083892338E-04  2.223725369924994E-04
2452589.500000000 = A.D. 2002-Nov-11 00:00:00.0000 TDB 
   9.156593528688388E-01  8.984005843195877E+00 -1.927523188010967E-01
  -5.847210565121969E-03  5.526448400461167E-04  2.233652634494545E-04
